<?xml version="1.0" encoding="UTF-8"?>
<gpx version="1.1" xmlns="http://www.topografix.com/GPX/1/1" xmlns:gpxx="http://www.garmin.com/xmlschemas/GpxExtensions/v3">
  <rte>
    <name>Pass road</name>
    <rtept lat="48" lon="11">
      <extensions>
        <gpxx:RoutePointExtension>
          <gpxx:Subclass>000000000000FFFFFFFFFFFFFFFFFFFFFFFF</gpxx:Subclass>
          <gpxx:rpt lat="48.1" lon="11.1"><gpxx:Subclass>000000000000FFFFFFFFFFFFFFFFFFFFFFFF</gpxx:Subclass></gpxx:rpt>
          <gpxx:rpt lat="48.2" lon="11.1"/>
        </gpxx:RoutePointExtension>
      </extensions>
    </rtept>
    <rtept lat="48.3" lon="11.2"/>
  </rte>
  <rte><rtept lat="1" lon="1"/><rtept lat="2" lon="2"/></rte>
</gpx>
